{
  "type": "FeatureCollection",
  "features": [
    {
      "type": "Feature",
      "properties": {
        "norad_id": 33913,
        "name": "COSMOS 2251 DEB",
        "group": "cosmos-2251-debris",
        "lat": 64.03448227502776,
        "lon": -163.86141547834853,
        "alt_km": 757.4365121186092,
        "timestamp": "2025-12-25T07:00:34.441186+00:00",
        "meta_object_name": "COSMOS 2251 DEB",
        "meta_object_id": "1993-036DS",
        "meta_epoch": "2025-12-24T21:17:19.582944",
        "meta_mean_motion": 14.48534497,
        "meta_eccentricity": 0.00481613,
        "meta_inclination": 74.0322,
        "meta_ra_of_asc_node": 160.8856,
        "meta_arg_of_pericenter": 261.1737,
        "meta_mean_anomaly": 216.7376,
        "meta_ephemeris_type": 0,
        "meta_classification_type": "U",
        "meta_norad_cat_id": 33913,
        "meta_element_set_no": 999,
        "meta_rev_at_epoch": 88633,
        "meta_bstar": 0.0005852626,
        "meta_mean_motion_dot": 2.202e-05,
        "meta_mean_motion_ddot": 0,
        "tle_line1": "1 33913U 93036DS  25358.88703221  .00002202  00000+0  58526-3 0  9998",
        "tle_line2": "2 33913  74.0322 160.8856 0048161 261.1737 216.7376 14.48534497886339"
      },
      "geometry": {
        "type": "Point",
        "coordinates": [
          -163.86141547834853,
          64.03448227502776
        ]
      }
    },
    {
      "type": "Feature",
      "properties": {
        "norad_id": 33914,
        "name": "COSMOS 2251 DEB",
        "group": "cosmos-2251-debris",
        "lat": -4.055012987859314,
        "lon": 175.5671589445034,
        "alt_km": 987.6133229974466,
        "timestamp": "2025-12-25T07:00:34.441196+00:00",
        "meta_object_name": "COSMOS 2251 DEB",
        "meta_object_id": "1993-036DT",
        "meta_epoch": "2025-12-24T11:28:31.306368",
        "meta_mean_motion": 13.71991623,
        "meta_eccentricity": 0.03007868,
        "meta_inclination": 74.0911,
        "meta_ra_of_asc_node": 355.7495,
        "meta_arg_of_pericenter": 95.9438,
        "meta_mean_anomaly": 26.1297,
        "meta_ephemeris_type": 0,
        "meta_classification_type": "U",
        "meta_norad_cat_id": 33914,
        "meta_element_set_no": 999,
        "meta_rev_at_epoch": 84242,
        "meta_bstar": 0.00025428838,
        "meta_mean_motion_dot": 2.99e-06,
        "meta_mean_motion_ddot": 0,
        "tle_line1": "1 33914U 93036DT  25358.47814012  .00000299  00000+0  25429-3 0  9995",
        "tle_line2": "2 33914  74.0911 355.7495 0300786  95.9438  26.1297 13.71991623842423"
      },
      "geometry": {
        "type": "Point",
        "coordinates": [
          175.5671589445034,
          -4.055012987859314
        ]
      }
    },
    {
      "type": "Feature",
      "properties": {
        "norad_id": 33915,
        "name": "COSMOS 2251 DEB",
        "group": "cosmos-2251-debris",
        "lat": -73.95347282658733,
        "lon": -73.03109007709875,
        "alt_km": 855.2026682786855,
        "timestamp": "2025-12-25T07:00:34.441207+00:00",
        "meta_object_name": "COSMOS 2251 DEB",
        "meta_object_id": "1993-036DU",
        "meta_epoch": "2025-12-24T12:02:51.968832",
        "meta_mean_motion": 14.35107783,
        "meta_eccentricity": 0.0103996,
        "meta_inclination": 74.043,
        "meta_ra_of_asc_node": 12.55,
        "meta_arg_of_pericenter": 101.9105,
        "meta_mean_anomaly": 49.337,
        "meta_ephemeris_type": 0,
        "meta_classification_type": "U",
        "meta_norad_cat_id": 33915,
        "meta_element_set_no": 999,
        "meta_rev_at_epoch": 87926,
        "meta_bstar": 0.00033250959,
        "meta_mean_motion_dot": 9.83e-06,
        "meta_mean_motion_ddot": 0,
        "tle_line1": "1 33915U 93036DU  25358.50199038  .00000983  00000+0  33251-3 0  9996",
        "tle_line2": "2 33915  74.0430  12.5500 0103996 101.9105  49.3370 14.35107783879266"
      },
      "geometry": {
        "type": "Point",
        "coordinates": [
          -73.03109007709875,
          -73.95347282658733
        ]
      }
    },
    {
      "type": "Feature",
      "properties": {
        "norad_id": 33916,
        "name": "COSMOS 2251 DEB",
        "group": "cosmos-2251-debris",
        "lat": -58.08016038501727,
        "lon": -7.360459657720987,
        "alt_km": 1080.913761553823,
        "timestamp": "2025-12-25T07:00:34.441217+00:00",
        "meta_object_name": "COSMOS 2251 DEB",
        "meta_object_id": "1993-036DV",
        "meta_epoch": "2025-12-24T19:55:06.600864",
        "meta_mean_motion": 13.68625705,
        "meta_eccentricity": 0.03247923,
        "meta_inclination": 74.0519,
        "meta_ra_of_asc_node": 20.7228,
        "meta_arg_of_pericenter": 190.2743,
        "meta_mean_anomaly": 348.1803,
        "meta_ephemeris_type": 0,
        "meta_classification_type": "U",
        "meta_norad_cat_id": 33916,
        "meta_element_set_no": 999,
        "meta_rev_at_epoch": 84056,
        "meta_bstar": 0.00029464599,
        "meta_mean_motion_dot": 3.44e-06,
        "meta_mean_motion_ddot": 0,
        "tle_line1": "1 33916U 93036DV  25358.82993751  .00000344  00000+0  29465-3 0  9999",
        "tle_line2": "2 33916  74.0519  20.7228 0324792 190.2743 348.1803 13.68625705840567"
      },
      "geometry": {
        "type": "Point",
        "coordinates": [
          -7.360459657720987,
          -58.08016038501727
        ]
      }
    },
    {
      "type": "Feature",
      "properties": {
        "norad_id": 33917,
        "name": "COSMOS 2251 DEB",
        "group": "cosmos-2251-debris",
        "lat": 40.73461339438934,
        "lon": 116.01478103842213,
        "alt_km": 1222.272647125591,
        "timestamp": "2025-12-25T07:00:34.441227+00:00",
        "meta_object_name": "COSMOS 2251 DEB",
        "meta_object_id": "1993-036DW",
        "meta_epoch": "2025-12-24T07:59:40.982208",
        "meta_mean_motion": 13.69384834,
        "meta_eccentricity": 0.03311749,
        "meta_inclination": 74.1073,
        "meta_ra_of_asc_node": 103.3843,
        "meta_arg_of_pericenter": 201.8191,
        "meta_mean_anomaly": 156.8546,
        "meta_ephemeris_type": 0,
        "meta_classification_type": "U",
        "meta_norad_cat_id": 33917,
        "meta_element_set_no": 999,
        "meta_rev_at_epoch": 83892,
        "meta_bstar": 0.0009339361,
        "meta_mean_motion_dot": 1.171e-05,
        "meta_mean_motion_ddot": 0,
        "tle_line1": "1 33917U 93036DW  25358.33311322  .00001171  00000+0  93394-3 0  9995",
        "tle_line2": "2 33917  74.1073 103.3843 0331174 201.8191 156.8546 13.69384834838924"
      },
      "geometry": {
        "type": "Point",
        "coordinates": [
          116.01478103842213,
          40.73461339438934
        ]
      }
    },
    {
      "type": "Feature",
      "properties": {
        "norad_id": 33920,
        "name": "COSMOS 2251 DEB",
        "group": "cosmos-2251-debris",
        "lat": -3.902841986422345,
        "lon": 95.69111075452385,
        "alt_km": 703.5661911747284,
        "timestamp": "2025-12-25T07:00:34.441237+00:00",
        "meta_object_name": "COSMOS 2251 DEB",
        "meta_object_id": "1993-036DZ",
        "meta_epoch": "2025-12-24T03:49:29.683776",
        "meta_mean_motion": 14.58442964,
        "meta_eccentricity": 0.00377584,
        "meta_inclination": 74.0614,
        "meta_ra_of_asc_node": 276.7258,
        "meta_arg_of_pericenter": 281.5069,
        "meta_mean_anomaly": 78.1857,
        "meta_ephemeris_type": 0,
        "meta_classification_type": "U",
        "meta_norad_cat_id": 33920,
        "meta_element_set_no": 999,
        "meta_rev_at_epoch": 88281,
        "meta_bstar": 0.001697106,
        "meta_mean_motion_dot": 7.93e-05,
        "meta_mean_motion_ddot": 0,
        "tle_line1": "1 33920U 93036DZ  25358.15937134  .00007930  00000+0  16971-2 0  9998",
        "tle_line2": "2 33920  74.0614 276.7258 0037758 281.5069  78.1857 14.58442964882819"
      },
      "geometry": {
        "type": "Point",
        "coordinates": [
          95.69111075452385,
          -3.902841986422345
        ]
      }
    },
    {
      "type": "Feature",
      "properties": {
        "norad_id": 33922,
        "name": "COSMOS 2251 DEB",
        "group": "cosmos-2251-debris",
        "lat": -66.59184009361692,
        "lon": 82.86947451125992,
        "alt_km": 724.3192776374572,
        "timestamp": "2025-12-25T07:00:34.441248+00:00",
        "meta_object_name": "COSMOS 2251 DEB",
        "meta_object_id": "1993-036EB",
        "meta_epoch": "2025-12-24T18:40:21.249408",
        "meta_mean_motion": 14.49550828,
        "meta_eccentricity": 0.00231126,
        "meta_inclination": 74.0468,
        "meta_ra_of_asc_node": 125.191,
        "meta_arg_of_pericenter": 234.4874,
        "meta_mean_anomaly": 251.3114,
        "meta_ephemeris_type": 0,
        "meta_classification_type": "U",
        "meta_norad_cat_id": 33922,
        "meta_element_set_no": 999,
        "meta_rev_at_epoch": 88752,
        "meta_bstar": 0.00050960281,
        "meta_mean_motion_dot": 1.934e-05,
        "meta_mean_motion_ddot": 0,
        "tle_line1": "1 33922U 93036EB  25358.77802372  .00001934  00000+0  50960-3 0  9998",
        "tle_line2": "2 33922  74.0468 125.1910 0023112 234.4874 251.3114 14.49550828887523"
      },
      "geometry": {
        "type": "Point",
        "coordinates": [
          82.86947451125992,
          -66.59184009361692
        ]
      }
    }
  ]
}